{
   "NEO_data": [
      {
         "id": "3604183",
         "name": "(2012 JX11)",
         "velocity": {
            "kilometers_per_second": "12.8822596421",
            "kilometers_per_hour": "46376.1347116763",
            "miles_per_hour": "28816.3265934857"
         },
         "miss_distance": {
            "astronomical": "0.2548237124",
            "lunar": "99.1264241236",
            "kilometers": "38121084.600532588",
            "miles": "23687343.5740541944"
         },
         "ODD": "2021-04-15 06:23:43",
         "epoch_osculation": "2460000.5",
         "eccentricity": ".4740893052074851",
         "semi_major_axis": "1.968672193120736",
         "inclination": "7.814291084156692",
         "ascending_node_longitude": "221.2076530005711",
         "perihelion_distance": "1.03534576090283",
         "perihelion_argument": "23.10051533488923",
         "aphelion_distance": "2.901998625338642",
         "mean_anomaly": "321.9576431417845",
         "mean_motion": ".3568157066456261"
      },
      {
         "id": "3644086",
         "name": "(2013 MQ)",
         "velocity": {
            "kilometers_per_second": "6.6021950684",
            "kilometers_per_hour": "23767.9022463213",
            "miles_per_hour": "14768.4501485544"
         },
         "miss_distance": {
            "astronomical": "0.087891753",
            "lunar": "34.189891917",
            "kilometers": "13148419.03936611",
            "miles": "8170048.740867918"
         },
         "ODD": "2023-05-27 07:42:02",
         "epoch_osculation": "2460000.5",
         "eccentricity": ".5101044129093929",
         "semi_major_axis": "2.234330446813702",
         "inclination": "4.418784229023702",
         "ascending_node_longitude": "105.3116085326493",
         "perihelion_distance": "1.094588625996217",
         "perihelion_argument": "168.0628993405962",
         "aphelion_distance": "3.374072267631187",
         "mean_anomaly": "323.6494785357137",
         "mean_motion": ".295109349275971"
      },
      {
         "id": "54091650",
         "name": "(2020 WZ1)",
         "velocity": {
            "kilometers_per_second": "30.7951414914",
            "kilometers_per_hour": "110862.5093689597",
            "miles_per_hour": "68885.6520020628"
         },
         "miss_distance": {
            "astronomical": "0.3942097251",
            "lunar": "153.3475830639",
            "kilometers": "58972935.208245537",
            "miles": "36644082.7297089306"
         },
         "ODD": "2021-12-30 04:50:56",
         "epoch_osculation": "2460000.5",
         "eccentricity": ".3718466030790116",
         "semi_major_axis": "1.041420273593348",
         "inclination": "45.23792298724264",
         "ascending_node_longitude": "263.5817483877908",
         "perihelion_distance": ".6541716824800468",
         "perihelion_argument": "342.2698982169263",
         "aphelion_distance": "1.42866886470665",
         "mean_anomaly": "251.5395873652776",
         "mean_motion": ".9273956019513953"
      },
      {
         "id": "54212701",
         "name": "(2021 UH2)",
         "velocity": {
            "kilometers_per_second": "6.4415894551",
            "kilometers_per_hour": "23189.7220382854",
            "miles_per_hour": "14409.1914520669"
         },
         "miss_distance": {
            "astronomical": "0.202728668",
            "lunar": "78.861451852",
            "kilometers": "30327776.92073716",
            "miles": "18844806.733246408"
         },
         "ODD": "2022-12-21 06:42:05",
         "epoch_osculation": "2460000.5",
         "eccentricity": ".1721692124355198",
         "semi_major_axis": ".9818623573309824",
         "inclination": ".2833464616166768",
         "ascending_node_longitude": "313.5332868341532",
         "perihelion_distance": ".8128158885492242",
         "perihelion_argument": "321.3697334474689",
         "aphelion_distance": "1.15090882611274",
         "mean_anomaly": "233.8670164483846",
         "mean_motion": "1.013043649382491"
      },
      {
         "id": "54336914",
         "name": "(2022 YS5)",
         "velocity": {
            "kilometers_per_second": "6.0136921269",
            "kilometers_per_hour": "21649.2916569957",
            "miles_per_hour": "13452.0279187593"
         },
         "miss_distance": {
            "astronomical": "0.0795055508",
            "lunar": "30.9276592612",
            "kilometers": "11893861.052856796",
            "miles": "7390502.5560879448"
         },
         "ODD": "2023-02-14 05:26:15",
         "epoch_osculation": "2460000.5",
         "eccentricity": ".02571693094503623",
         "semi_major_axis": "1.007081719962641",
         "inclination": "11.13344094450913",
         "ascending_node_longitude": "290.4086822656965",
         "perihelion_distance": ".9811826689143531",
         "perihelion_argument": "303.7983532365771",
         "aphelion_distance": "1.032980771010928",
         "mean_anomaly": "283.307597022548",
         "mean_motion": ".9752298920031918"
      },
      {
         "id": "54357153",
         "name": "(2023 HO6)",
         "velocity": {
            "kilometers_per_second": "7.769008867",
            "kilometers_per_hour": "27968.4319213241",
            "miles_per_hour": "17378.4959346694"
         },
         "miss_distance": {
            "astronomical": "0.0136725749",
            "lunar": "5.3186316361",
            "kilometers": "2045388.082455463",
            "miles": "1270945.2199248694"
         },
         "ODD": "2023-06-07 05:52:05",
         "epoch_osculation": "2460000.5",
         "eccentricity": ".4202039315400573",
         "semi_major_axis": "1.748194778095412",
         "inclination": "8.348168488252874",
         "ascending_node_longitude": "99.3626554495563",
         "perihelion_distance": "1.013596459241922",
         "perihelion_argument": "199.5063742399559",
         "aphelion_distance": "2.482793096948902",
         "mean_anomaly": "298.2783881155087",
         "mean_motion": ".4264021108236427"
      },
      {
         "id": "2137799",
         "name": "137799 (1999 YB)",
         "velocity": {
            "kilometers_per_second": "2.5816198281",
            "kilometers_per_hour": "9293.8313810655",
            "miles_per_hour": "5774.8253934182"
         },
         "miss_distance": {
            "astronomical": "0.2939355664",
            "lunar": "114.3409353296",
            "kilometers": "43972134.650683568",
            "miles": "27323017.4867785184"
         },
         "ODD": "2023-05-20 07:37:33",
         "epoch_osculation": "2460000.5",
         "eccentricity": ".07483041170671258",
         "semi_major_axis": "1.321218898185238",
         "inclination": "6.790742395314708",
         "ascending_node_longitude": "30.9686374964535",
         "perihelion_distance": "1.222351544079348",
         "perihelion_argument": "192.6879863172342",
         "aphelion_distance": "1.420086252291129",
         "mean_anomaly": "330.7935763757581",
         "mean_motion": ".6489958329995078"
      },
      {
         "id": "3550298",
         "name": "(2010 VB1)",
         "velocity": {
            "kilometers_per_second": "19.2059849353",
            "kilometers_per_hour": "69141.5457671174",
            "miles_per_hour": "42961.8677017958"
         },
         "miss_distance": {
            "astronomical": "0.39232107",
            "lunar": "152.61289623",
            "kilometers": "58690396.4281209",
            "miles": "36468521.27263242"
         },
         "ODD": "2021-04-15 04:24:43",
         "epoch_osculation": "2460000.5",
         "eccentricity": ".2712150688511688",
         "semi_major_axis": "1.13671102884248",
         "inclination": "2.641054232659386",
         "ascending_node_longitude": "106.0893184978767",
         "perihelion_distance": ".8284178688910837",
         "perihelion_argument": "74.88356601979206",
         "aphelion_distance": "1.445004188793876",
         "mean_anomaly": "304.298282012052",
         "mean_motion": ".8132591595044645"
      },
      {
         "id": "3789476",
         "name": "(2017 WH1)",
         "velocity": {
            "kilometers_per_second": "6.8116632387",
            "kilometers_per_hour": "24521.9876594937",
            "miles_per_hour": "15237.009498756"
         },
         "miss_distance": {
            "astronomical": "0.2323871287",
            "lunar": "90.3985930643",
            "kilometers": "34764619.468935869",
            "miles": "21601732.8523342322"
         },
         "ODD": "2023-06-05 05:48:41",
         "epoch_osculation": "2460000.5",
         "eccentricity": ".4527878247535773",
         "semi_major_axis": "2.124765482092599",
         "inclination": "3.550046538367049",
         "ascending_node_longitude": "259.2676119103196",
         "perihelion_distance": "1.162697541344405",
         "perihelion_argument": "34.72959033636643",
         "aphelion_distance": "3.086833422840793",
         "mean_anomaly": "317.9014109481564",
         "mean_motion": ".3182273998251726"
      }
   ]
}